LEMUR-2-AMANDA-SVANTE   
1 48269U 21034B   26068.77637527  .00030872  00000+0  11134-2 0  9996
2 48269  97.5829 144.8625 0002703 205.4721 154.6385 15.28469003265849
STARLINK-35816          
1 66499U 25263Q   26068.15693726  .00038120  00000+0  13878-2 0  9995
2 66499  43.0030 354.0351 0001765 277.2488  82.8163 15.27576912 18815
